NORAD_CAT_ID,OBJECT_NAME,OBJECT_TYPE,EPOCH,MEAN_MOTION,ECCENTRICITY,INCLINATION,RA_OF_ASC_NODE,ARG_OF_PERICENTER,MEAN_ANOMALY,BSTAR,MEAN_MOTION_DOT,MEAN_MOTION_DDOT,TLE_LINE0,TLE_LINE1,TLE_LINE2,SEMIMAJOR_AXIS,PERIOD,APOGEE,PERIGEE,DECAYED
55640.0,STARLINK-5069,PAYLOAD,2023-10-04 09:23:29,14.98327816,0.0002975,69.9988,261.6059,269.0321,91.0497,2.2385e-05,1.74e-06,0.0,0 STARLINK-5069,1 55640U 23021N   23277.39131541  .00000174  00000-0  22385-4 0  9992,2 55640  69.9988 261.6059 0002975 269.0321  91.0497 14.98327816 35586,6950.2,96.107,574.132,569.997,0.0
55640.0,STARLINK-5069,PAYLOAD,2023-10-04 15:48:01,14.98329385,0.0002981,69.9989,260.9326,269.1241,90.9577,1.8478e-05,1.27e-06,0.0,0 STARLINK-5069,1 55640U 23021N   23277.65835455  .00000127  00000-0  18478-4 0  9992,2 55640  69.9989 260.9326 0002981 269.1241  90.9577 14.98329385 35923,6950.195,96.107,574.132,569.988,0.0
55640.0,STARLINK-5069,PAYLOAD,2023-10-05 09:25:30,14.98336238,0.0002816,69.9993,259.0817,267.7741,92.3095,1.2905e-05,6.1e-07,0.0,0 STARLINK-5069,1 55640U 23021N   23278.39270958  .00000061  00000-0  12905-4 0  9991,2 55640  69.9993 259.0817 0002816 267.7741  92.3095 14.98336238 35733,6950.174,96.107,573.996,570.081,0.0
55640.0,STARLINK-5069,PAYLOAD,2023-10-05 15:50:02,14.98347856,0.0002847,69.9993,258.4073,273.208,86.8753,-0.00024549,-3.022e-05,0.0,0 STARLINK-5069,1 55640U 23021N   23278.65974743 -.00003022  00000-0 -24549-3 0  9991,2 55640  69.9993 258.4073 0002847 273.2080  86.8753 14.98347856 36077,6950.138,96.106,573.981,570.024,0.0
55640.0,STARLINK-5069,PAYLOAD,2023-10-06 03:02:59,14.98328503,0.0002591,69.9994,257.2299,269.6427,90.4435,1.0414e-05,3.1e-07,0.0,0 STARLINK-5069,1 55640U 23021N   23279.12707408  .00000031  00000-0  10414-4 0  9998,2 55640  69.9994 257.2299 0002591 269.6427  90.4435 14.98328503 35845,6950.198,96.107,573.863,570.262,0.0
55640.0,STARLINK-5069,PAYLOAD,2023-10-06 07:51:23,14.98328523,0.0002872,69.9995,256.7248,267.7682,92.3148,-8.2302e-06,-1.91e-06,0.0,0 STARLINK-5069,1 55640U 23021N   23279.32735389 -.00000191  00000-0 -82302-5 0  9994,2 55640  69.9995 256.7248 0002872 267.7682  92.3148 14.98328523 36179,6950.197,96.107,574.059,570.066,0.0
55640.0,STARLINK-5069,PAYLOAD,2023-10-06 22:16:36,14.98326289,0.0002985,69.9997,255.2093,271.3938,88.6879,2.1838e-05,1.68e-06,0.0,0 STARLINK-5069,1 55640U 23021N   23279.92819467  .00000168  00000-0  21838-4 0  9998,2 55640  69.9997 255.2093 0002985 271.3938  88.6879 14.98326289 36269,6950.204,96.107,574.144,569.995,0.0
55640.0,STARLINK-5069,PAYLOAD,2023-10-07 07:53:24,14.98329524,0.0002745,69.9998,254.2001,260.6573,99.4276,-2.1575e-05,-3.5e-06,0.0,0 STARLINK-5069,1 55640U 23021N   23280.32875391 -.00000350  00000-0 -21575-4 0  9995,2 55640  69.9998 254.2001 0002745 260.6573  99.4276 14.98329524 36028,6950.194,96.107,573.967,570.152,0.0
55640.0,STARLINK-5069,PAYLOAD,2023-10-07 22:18:36,14.98326988,0.0003009,69.9994,252.6843,270.0701,90.0113,3.5333e-05,3.29e-06,0.0,0 STARLINK-5069,1 55640U 23021N   23280.92959370  .00000329  00000-0  35333-4 0  9992,2 55640  69.9994 252.6843 0003009 270.0701  90.0113 14.98326988 36413,6950.202,96.107,574.159,569.976,0.0
55640.0,STARLINK-5069,PAYLOAD,2023-10-08 07:55:25,14.9832886,0.0002614,70.0008,251.6768,254.1246,105.9625,4.2912e-05,4.19e-06,0.0,0 STARLINK-5069,1 55640U 23021N   23281.33015264  .00000419  00000-0  42912-4 0  9994,2 55640  70.0008 251.6768 0002614 254.1246 105.9625 14.98328860 36173,6950.196,96.107,573.878,570.245,0.0
55640.0,STARLINK-5069,PAYLOAD,2023-10-08 15:56:05,14.98331041,0.0002804,70.0003,250.834,272.8404,87.2434,3.1333e-05,2.81e-06,0.0,0 STARLINK-5069,1 55640U 23021N   23281.66395187  .00000281  00000-0  31333-4 0  9997,2 55640  70.0003 250.8340 0002804 272.8404  87.2434 14.98331041 36523,6950.19,96.107,574.004,570.106,0.0
55640.0,STARLINK-5069,PAYLOAD,2023-10-09 07:57:25,14.98336504,0.0002715,70.0004,249.1503,269.3658,90.719,0.00011147,1.238e-05,0.0,0 STARLINK-5069,1 55640U 23021N   23282.33154486  .00001238  00000-0  11147-3 0  9990,2 55640  70.0004 249.1503 0002715 269.3658  90.7190 14.98336504 36324,6950.173,96.107,573.925,570.151,0.0
55640.0,STARLINK-5069,PAYLOAD,2023-10-10 03:11:02,14.98327066,0.0002682,70.0006,247.1314,262.9791,97.1063,1.2247e-06,-7.8e-07,0.0,0 STARLINK-5069,1 55640U 23021N   23283.13267167 -.00000078  00000-0  12247-5 0  9996,2 55640  70.0006 247.1314 0002682 262.9791  97.1063 14.98327066 36440,6950.202,96.107,573.931,570.203,0.0
55640.0,STARLINK-5069,PAYLOAD,2023-10-10 07:59:27,14.98327793,0.0002508,70.0008,246.6277,253.9325,106.1558,-2.808e-05,-4.28e-06,0.0,0 STARLINK-5069,1 55640U 23021N   23283.33295239 -.00000428  00000-0 -28080-4 0  9990,2 55640  70.0008 246.6277 0002508 253.9325 106.1558 14.98327793 36777,6950.2,96.107,573.808,570.322,0.0
55640.0,STARLINK-5069,PAYLOAD,2023-10-10 14:23:59,14.98326899,0.0002377,70.001,245.9536,270.6219,89.4668,-0.00013047,-1.649e-05,0.0,0 STARLINK-5069,1 55640U 23021N   23283.59999732 -.00001649  00000-0 -13047-3 0  9999,2 55640  70.0010 245.9536 0002377 270.6219  89.4668 14.98326899 36818,6950.202,96.107,573.72,570.415,0.0
55640.0,STARLINK-5069,PAYLOAD,2023-10-11 03:13:04,14.98324078,0.000275,70.0002,244.6061,268.7606,91.3238,-6.4927e-05,-8.67e-06,0.0,0 STARLINK-5069,1 55640U 23021N   23284.13407718 -.00000867  00000-0 -64927-4 0  9993,2 55640  70.0002 244.6061 0002750 268.7606  91.3238 14.98324078 36598,6950.211,96.107,573.988,570.165,0.0
55640.0,STARLINK-5069,PAYLOAD,2023-10-11 06:25:20,14.98326506,0.0002502,70.0003,244.2691,263.1636,96.9238,-7.1965e-05,-9.51e-06,0.0,0 STARLINK-5069,1 55640U 23021N   23284.26759586 -.00000951  00000-0 -71965-4 0  9994,2 55640  70.0003 244.2691 0002502 263.1636  96.9238 14.98326506 36916,6950.204,96.107,573.808,570.33,0.0
55640.0,STARLINK-5069,PAYLOAD,2023-10-11 14:26:00,14.98331882,0.0002567,70.0005,243.4282,264.5117,95.5749,-0.00010514,-1.347e-05,0.0,0 STARLINK-5069,1 55640U 23021N   23284.60139367 -.00001347  00000-0 -10514-3 0  9993,2 55640  70.0005 243.4282 0002567 264.5117  95.5749 14.98331882 36662,6950.187,96.107,573.836,570.268,0.0
55640.0,STARLINK-5069,PAYLOAD,2023-10-12 06:27:20,14.9832996,0.0002707,70.0003,241.7446,263.257,96.8281,0.00010068,1.109e-05,0.0,0 STARLINK-5069,1 55640U 23021N   23285.26898992  .00001109  00000-0  10068-3 0  9990,2 55640  70.0003 241.7446 0002707 263.2570  96.8281 14.98329960 37062,6950.193,96.107,573.939,570.177,0.0
55640.0,STARLINK-5069,PAYLOAD,2023-10-12 14:28:01,14.98330538,0.0002399,70.0011,240.9025,277.6475,82.4411,1.2453e-05,5.6e-07,0.0,0 STARLINK-5069,1 55640U 23021N   23285.60279345  .00000056  00000-0  12453-4 0  9994,2 55640  70.0011 240.9025 0002399 277.6475  82.4411 14.98330538 36816,6950.191,96.107,573.724,570.389,0.0
55640.0,STARLINK-5069,PAYLOAD,2023-10-12 22:28:41,14.98322083,0.0002873,70.0005,240.0612,270.0143,90.0687,2.7296e-05,2.33e-06,0.0,0 STARLINK-5069,1 55640U 23021N   23285.93659714  .00000233  00000-0  27296-4 0  9990,2 55640  70.0005 240.0612 0002873 270.0143  90.0687 14.98322083 37163,6950.217,96.108,574.079,570.086,0.0
55640.0,STARLINK-5069,PAYLOAD,2023-10-13 04:53:12,14.9834362,0.0003015,70.0004,239.3873,254.8964,105.1861,0.00025025,2.895e-05,0.0,0 STARLINK-5069,1 55640U 23021N   23286.20361725  .00002895  00000-0  25025-3 0  9996,2 55640  70.0004 239.3873 0003015 254.8964 105.1861 14.98343620 36905,6950.151,96.106,574.111,569.92,0.0
55640.0,STARLINK-5069,PAYLOAD,2023-10-13 06:29:21,14.98333831,0.0002859,70.0001,239.2187,264.767,95.3163,0.00013174,1.479e-05,0.0,0 STARLINK-5069,1 55640U 23021N   23286.27038686  .00001479  00000-0  13174-3 0  9999,2 55640  70.0001 239.2187 0002859 264.7670  95.3163 14.98333831 36917,6950.181,96.107,574.033,570.059,0.0
55640.0,STARLINK-5069,PAYLOAD,2023-10-13 14:30:02,14.98332426,0.0002624,70.001,238.3773,272.514,87.5719,5.3245e-05,5.42e-06,0.0,0 STARLINK-5069,1 55640U 23021N   23286.60419049  .00000542  00000-0  53245-4 0  9996,2 55640  70.0010 238.3773 0002624 272.5140  87.5719 14.98332426 37265,6950.185,96.107,573.874,570.227,0.0
55640.0,STARLINK-5069,PAYLOAD,2023-10-13 20:54:34,14.98332431,0.0002867,70.0003,237.7045,271.7266,88.3565,6.4589e-05,6.78e-06,0.0,0 STARLINK-5069,1 55640U 23021N   23286.87122883  .00000678  00000-0  64589-4 0  9995,2 55640  70.0003 237.7045 0002867 271.7266  88.3565 14.98332431 37300,6950.185,96.107,574.043,570.058,0.0
55640.0,STARLINK-5069,PAYLOAD,2023-10-14 06:31:21,14.98342204,0.0002769,70.0,236.6945,268.895,91.1892,8.9735e-05,9.78e-06,0.0,0 STARLINK-5069,1 55640U 23021N   23287.27178010  .00000978  00000-0  89735-4 0  9996,2 55640  70.0000 236.6945 0002769 268.8950  91.1892 14.98342204 37069,6950.155,96.106,573.945,570.096,0.0
55640.0,STARLINK-5069,PAYLOAD,2023-10-14 20:56:35,14.98319791,0.0002886,69.9999,235.1784,266.5345,93.5483,-6.5005e-05,-8.68e-06,0.0,0 STARLINK-5069,1 55640U 23021N   23287.87263796 -.00000868  00000-0 -65005-4 0  9992,2 55640  69.9999 235.1784 0002886 266.5345  93.5483 14.98319791 37158,6950.224,96.108,574.095,570.084,0.0
55640.0,STARLINK-5069,PAYLOAD,2023-10-14 22:32:44,14.9831569,0.0003023,69.9995,235.0113,267.078,93.0033,-0.00010622,-1.36e-05,0.0,0 STARLINK-5069,1 55640U 23021N   23287.93940184 -.00001360  00000-0 -10622-3 0  9994,2 55640  69.9995 235.0113 0003023 267.0780  93.0033 14.98315690 37466,6950.237,96.108,574.203,570.001,0.0
55640.0,STARLINK-5069,PAYLOAD,2023-10-15 06:33:24,14.98320346,0.0003004,70.0,234.169,264.5052,95.5764,-0.00011478,-1.462e-05,0.0,0 STARLINK-5069,1 55640U 23021N   23288.27320126 -.00001462  00000-0 -11478-3 0  9993,2 55640  70.0000 234.1690 0003004 264.5052  95.5764 14.98320346 37517,6950.223,96.108,574.176,570.0,0.0
55640.0,STARLINK-5069,PAYLOAD,2023-10-15 20:58:36,14.98329703,0.0003204,69.9998,232.6547,268.4409,91.6383,-4.7532e-05,-6.6e-06,0.0,0 STARLINK-5069,1 55640U 23021N   23288.87403402 -.00000660  00000-0 -47532-4 0  9998,2 55640  69.9998 232.6547 0003204 268.4409  91.6383 14.98329703 37302,6950.194,96.107,574.286,569.832,0.0
